{
"type": "FeatureCollection",
"generator": "overpass-turbo",
"copyright": "The data included in this document is from www.openstreetmap.org. The data is made available under ODbL.",
"timestamp": "2026-02-05T11:51:13Z",
"name": "export",
"features": [
{ "type": "Feature", "id": "node/95288389", "properties": { "@id": "node/95288389", "addr:city": "Amsterdam", "addr:housenumber": "22-H", "addr:postcode": "1092GG", "addr:street": "Pretoriusstraat", "amenity": "restaurant", "cuisine": "turkish", "diet:halal": "only", "name": "Meram", "phone": "+31 20 3626420", "source": "BAG", "source:date": "2014-03-24", "website": "https://meram.nl/", "wheelchair": "no" }, "geometry": { "type": "Point", "coordinates": [ 4.9255949, 52.3560114 ] } },
{ "type": "Feature", "id": "node/393089979", "properties": { "@id": "node/393089979", "addr:city": "Amsterdam", "addr:housenumber": "9", "addr:postcode": "1092EW", "addr:street": "Pretoriusstraat", "brand": "DekaMarkt", "brand:wikidata": "Q2489350", "diet:halal": "no", "name": "DekaMarkt", "opening_hours": "Mo-Sa 08:00-21:00;Su 09:00-21:00", "operator": "DekaMarkt", "phone": "+31 88 313 5670", "shop": "supermarket", "website": "https://www.dekamarkt.nl/", "wheelchair": "yes" }, "geometry": { "type": "Point", "coordinates": [ 4.9269333, 52.3560493 ] } },
{ "type": "Feature", "id": "node/393091529", "properties": { "@id": "node/393091529", "addr:city": "Amsterdam", "addr:housenumber": "10-H", "addr:postcode": "1092GE", "addr:street": "Pretoriusstraat", "name": "Konet", "shop": "butcher", "source": "BAG", "source:date": "2014-03-24" }, "geometry": { "type": "Point", "coordinates": [ 4.9266467, 52.3562767 ] } },
{ "type": "Feature", "id": "node/393136467", "properties": { "@id": "node/393136467", "addr:city": "Amsterdam", "addr:housenumber": "102", "addr:postcode": "1092CP", "addr:street": "Linnaeusstraat", "amenity": "pub", "check_date": "2024-09-12", "name": "Cafe Sport", "wheelchair": "no" }, "geometry": { "type": "Point", "coordinates": [ 4.9276134, 52.3558199 ] } },
{ "type": "Feature", "id": "node/393136932", "properties": { "@id": "node/393136932", "addr:city": "Amsterdam", "addr:housenumber": "5", "addr:postcode": "1092HA", "addr:street": "Transvaalstraat", "amenity": "restaurant", "check_date": "2024-09-06", "cuisine": "indian", "diet:vegetarian": "yes", "name": "Natraj", "wheelchair": "limited" }, "geometry": { "type": "Point", "coordinates": [ 4.9274907, 52.355557 ] } },
{ "type": "Feature", "id": "node/393137999", "properties": { "@id": "node/393137999", "addr:city": "Amsterdam", "addr:housenumber": "14A", "addr:postcode": "1092HZ", "addr:street": "Ingogostraat", "amenity": "restaurant", "contact:instagram": "https://www.instagram.com/fuku_ramen_amsterdam", "cuisine": "ramen", "diet:halal": "no", "name": "Fuku Ramen", "opening_hours": "Th-Sa 18:00-23:00; Su 13:00-19:30", "phone": "+31 6 42608596", "reservation": "recommended", "website": "https://www.fukuramenamsterdam.com/", "wheelchair": "no" }, "geometry": { "type": "Point", "coordinates": [ 4.9257723, 52.3552228 ] } },
{ "type": "Feature", "id": "node/393145263", "properties": { "@id": "node/393145263", "amenity": "fast_food", "cuisine": "indonesian", "diet:halal": "only", "name": "Toko Sumatra Deli", "wheelchair": "yes" }, "geometry": { "type": "Point", "coordinates": [ 4.9279618, 52.3562076 ] } },
{ "type": "Feature", "id": "node/410291535", "properties": { "@id": "node/410291535", "addr:city": "Amsterdam", "addr:housenumber": "76-H", "addr:postcode": "1092CN", "addr:street": "Linnaeusstraat", "amenity": "cafe", "name": "The Cottage Shop & Deli", "opening_hours": "Tu-Th 10:00-18:00; Fr 09:00-18:00; Sa 09:00-17:00; Su 10:00-17:00; Mo off", "source": "BAG", "source:date": "2014-03-24" }, "geometry": { "type": "Point", "coordinates": [ 4.9271456, 52.3567032 ] } },
{ "type": "Feature", "id": "node/1308926299", "properties": { "@id": "node/1308926299", "addr:city": "Amsterdam", "addr:housenumber": "112-H", "addr:postcode": "1092CR", "addr:street": "Linnaeusstraat", "amenity": "cafe", "branch": "Linnaeusstraat", "brand": "Cafecito", "contact:instagram": "cafecito_nl", "cuisine": "coffee", "email": "coffee@cafecito.nl", "name": "Cafecito", "opening_hours": "Mo-Fr 07:00-18:00; Sa-Su 09:00-18:00", "website": "https://cafecito.nl", "wheelchair": "yes" }, "geometry": { "type": "Point", "coordinates": [ 4.9279124, 52.3554464 ] } },
{ "type": "Feature", "id": "node/1308933300", "properties": { "@id": "node/1308933300", "addr:city": "Amsterdam", "addr:housenumber": "92", "addr:postcode": "1092CP", "addr:street": "Linnaeusstraat", "amenity": "fast_food", "brand": "FEBO", "brand:wikidata": "Q582245", "brand:wikipedia": "nl:Febo (snackbar)", "check_date": "2024-10-09", "cuisine": "friture", "name": "FEBO", "opening_hours": "Mo-Su 11:30-24:00", "phone": "+31 20 693 7956", "takeaway": "yes", "website": "https://bestellen.febo.nl/", "wheelchair": "yes" }, "geometry": { "type": "Point", "coordinates": [ 4.9274267, 52.3560684 ] } },
{ "type": "Feature", "id": "node/1578695369", "properties": { "@id": "node/1578695369", "addr:city": "Amsterdam", "addr:housenumber": "213", "addr:postcode": "1093EP", "addr:street": "Linnaeusstraat", "amenity": "fast_food", "cuisine": "turkish", "name": "Ayaz Döner", "source": "BAG", "source:date": "2014-03-24", "website": "https://www.ayazdoner-amsterdam.nl/", "wheelchair": "limited" }, "geometry": { "type": "Point", "coordinates": [ 4.9277837, 52.356375 ] } },
{ "type": "Feature", "id": "node/1578697239", "properties": { "@id": "node/1578697239", "name": "Grapedistrict", "shop": "wine", "website": "https://www.grapedistrict.nl", "wheelchair": "no" }, "geometry": { "type": "Point", "coordinates": [ 4.9277931, 52.3555833 ] } },
{ "type": "Feature", "id": "node/1578742163", "properties": { "@id": "node/1578742163", "amenity": "pub", "check_date": "2025-07-15", "check_date:opening_hours": "2025-07-15", "name": "Ruk en Pluk", "opening_hours": "We,Th,Su 15:00-01:00, Fr,Sa 15:00-02:00", "wheelchair": "yes" }, "geometry": { "type": "Point", "coordinates": [ 4.9266379, 52.3574255 ] } },
{ "type": "Feature", "id": "node/1739267471", "properties": { "@id": "node/1739267471", "amenity": "cafe", "diet:halal": "no", "name": "Q Cafe", "outdoor_seating": "yes", "wheelchair": "yes" }, "geometry": { "type": "Point", "coordinates": [ 4.9303363, 52.3575378 ] } },
{ "type": "Feature", "id": "node/2052027473", "properties": { "@id": "node/2052027473", "addr:city": "Amsterdam", "addr:housenumber": "219", "addr:postcode": "1093EP", "addr:street": "Linnaeusstraat", "amenity": "cafe", "cuisine": "turkish", "image": "https://meram.nl/wp-content/uploads/2020/08/Capture2.png.webp", "name": "Meram Cafe", "opening_hours": "12:00-24:00", "website": "https://meram.nl/vestigingen/amsterdam-oost-cafe/", "wheelchair": "limited" }, "geometry": { "type": "Point", "coordinates": [ 4.9278659, 52.3563175 ] } },
{ "type": "Feature", "id": "node/2052027474", "properties": { "@id": "node/2052027474", "addr:city": "Amsterdam", "addr:housenumber": "15", "addr:postcode": "1092EW", "addr:street": "Pretoriusstraat", "name": "Rum Baba", "opening_hours": "Mo-Fr 09:00-16:30; Sa-Su 10:00-17:00", "payment:cash": "no", "shop": "coffee", "website": "https://rumbaba.nl", "wheelchair": "limited" }, "geometry": { "type": "Point", "coordinates": [ 4.9265383, 52.3559916 ] } },
{ "type": "Feature", "id": "node/2323680643", "properties": { "@id": "node/2323680643", "addr:city": "Amsterdam", "addr:housenumber": "88", "addr:postcode": "1092CP", "addr:street": "Linnaeusstraat", "amenity": "restaurant", "check_date": "2024-10-09", "name": "The Cottage", "toilets:wheelchair": "no", "wheelchair": "yes" }, "geometry": { "type": "Point", "coordinates": [ 4.927206, 52.356135 ] } },
{ "type": "Feature", "id": "node/2359201523", "properties": { "@id": "node/2359201523", "amenity": "cafe", "check_date": "2024-06-06", "name": "Wakuli", "website": "https://www.wakuli.com/", "wheelchair": "yes" }, "geometry": { "type": "Point", "coordinates": [ 4.9280631, 52.3560141 ] } },
{ "type": "Feature", "id": "node/2746144123", "properties": { "@id": "node/2746144123", "addr:city": "Amsterdam", "addr:housenumber": "3", "addr:postcode": "1093NB", "addr:street": "Land van Cocagneplein", "air_conditioning": "yes", "branch": "AH Land van Cocagneplein", "brand": "Albert Heijn", "brand:website": "https://www.ah.nl", "brand:wikidata": "Q1653985", "brand:wikipedia": "nl:Albert Heijn (supermarkt)", "internet_access": "wlan", "name": "Albert Heijn", "opening_hours": "Mo-Sa 08:00-22:00; Su 09:00-22:00", "phone": "+31 20 693 0611", "shop": "supermarket", "source": "BAG", "source:date": "2014-03-24", "website": "https://www.ah.nl/winkel/1436", "wheelchair": "yes" }, "geometry": { "type": "Point", "coordinates": [ 4.9281602, 52.3570557 ] } },
{ "type": "Feature", "id": "node/2749072972", "properties": { "@id": "node/2749072972", "addr:city": "Amsterdam", "addr:housenumber": "1D", "addr:postcode": "1093NB", "addr:street": "Land van Cocagneplein", "amenity": "fast_food", "branch": "Amsterdam Oostpoort", "cuisine": "burger", "email": "oostpoort@burgernshake.nl", "name": "Burger 'n Shake", "opening_hours": "Mo-Su 12:00-23:00", "outdoor_seating": "yes", "phone": "+31 20 221 28 56", "source": "BAG", "source:date": "2017-05-09", "takeaway": "yes", "toilets:wheelchair": "no", "website": "https://burgersenshakes.nl/", "website:menu": "https://burgersenshakes.nl/#menu", "wheelchair": "yes" }, "geometry": { "type": "Point", "coordinates": [ 4.9275625, 52.3569968 ] } },
{ "type": "Feature", "id": "node/2754629496", "properties": { "@id": "node/2754629496", "addr:city": "Amsterdam", "addr:housenumber": "46", "addr:street": "Land van Cocagneplein", "branch": "Amsterdam Oostpoort", "brand": "Vitaminstore", "brand:wikidata": "Q123535847", "check_date:opening_hours": "2025-05-06", "name": "Vitaminstore", "opening_hours": "Mo 11:00-18:00; Tu-Fr 09:30-18:00; Sa 09:30-17:00; Su 12:00-17:00", "phone": "+31 20 7055183", "shop": "nutrition_supplements", "website": "https://www.vitaminstore.nl/shop/vitaminstore-amsterdam-oostpoort", "wheelchair": "yes" }, "geometry": { "type": "Point", "coordinates": [ 4.9285625, 52.3567833 ] } },
{ "type": "Feature", "id": "node/2754629497", "properties": { "@id": "node/2754629497", "addr:city": "Amsterdam", "addr:housenumber": "48", "addr:street": "Land van Cocagneplein", "check_date": "2024-09-06", "name": "De Bakkerszonen", "shop": "bakery", "wheelchair": "yes" }, "geometry": { "type": "Point", "coordinates": [ 4.9287396, 52.356818 ] } },
{ "type": "Feature", "id": "node/2754629498", "properties": { "@id": "node/2754629498", "addr:city": "Amsterdam", "addr:housenumber": "4", "addr:street": "Waldenlaan", "brand": "Simon Lévelt", "brand:wikidata": "Q2220070", "name": "Simon Lévelt", "opening_hours": "Mo-We,Fr,Sa 10:00-18:00; Th 10:00-19:00; Su 12:00-18:00", "shop": "tea" }, "geometry": { "type": "Point", "coordinates": [ 4.9288843, 52.3568513 ] } },
{ "type": "Feature", "id": "node/2820058201", "properties": { "@id": "node/2820058201", "addr:city": "Amsterdam", "addr:housenumber": "68", "addr:postcode": "1093KS", "addr:street": "Oranje-Vrijstaatkade", "amenity": "cafe", "brand": "Bagels & Beans", "brand:wikidata": "Q13433690", "check_date:opening_hours": "2025-04-17", "cuisine": "coffee_shop", "name": "Bagels & Beans", "not:brand:wikidata": "Q5140923", "opening_hours": "Mo-Th 08:30-17:00; Fr 08:30-16:00", "outdoor_seating": "yes", "phone": "+31 20 233 3450", "source": "BAG", "source:date": "2017-05-09", "takeaway": "yes", "website": "https://www.bagelsbeans.nl/en/storelocator?address=1093KS", "wheelchair": "yes" }, "geometry": { "type": "Point", "coordinates": [ 4.9289633, 52.3558409 ] } },
{ "type": "Feature", "id": "node/2820058202", "properties": { "@id": "node/2820058202", "addr:city": "Amsterdam", "addr:housenumber": "69", "addr:postcode": "1093KS", "addr:street": "Oranje-Vrijstaatkade", "amenity": "pub", "brewery": "yes", "diet:meat": "yes", "diet:vegetarian": "yes", "name": "De Bierkantine", "outdoor_seating": "yes", "phone": "+31 20 786 3378", "source": "BAG", "source:date": "2017-05-09", "website": "https://debierkantine.com/" }, "geometry": { "type": "Point", "coordinates": [ 4.9302489, 52.3564531 ] } },
{ "type": "Feature", "id": "node/2822146023", "properties": { "@id": "node/2822146023", "addr:housenumber": "129", "addr:postcode": "1093NH", "addr:street": "Waldenlaan", "brand": "Holland & Barrett", "brand:website": "https://www.hollandandbarrett.nl/", "brand:wikidata": "Q5880870", "brand:wikipedia": "nl:Holland & Barrett", "name": "Holland & Barrett", "opening_hours": "Mo 11:00-18:00; Tu-We, Fr 09:30-18:00; Th 09:30-20:00; Sa 09:30-17:30; Su 12:00-17:00", "phone": "+31 20 8885031", "shop": "health_food", "website": "https://www.hollandandbarrett.nl/winkels/amsterdam-oostpoort-7733/" }, "geometry": { "type": "Point", "coordinates": [ 4.928912, 52.3570648 ] } },
{ "type": "Feature", "id": "node/2826203141", "properties": { "@id": "node/2826203141", "addr:city": "Amsterdam", "addr:housenumber": "64-H", "addr:postcode": "1092CM", "addr:street": "Linnaeusstraat", "amenity": "restaurant", "name": "Miss Hotpot", "source": "BAG", "source:date": "2014-03-24" }, "geometry": { "type": "Point", "coordinates": [ 4.9269363, 52.3570307 ] } },
{ "type": "Feature", "id": "node/2826203660", "properties": { "@id": "node/2826203660", "addr:city": "Amsterdam", "addr:housenumber": "68-H", "addr:postcode": "1092CN", "addr:street": "Linnaeusstraat", "amenity": "fast_food", "brand": "New York Pizza", "brand:website": "https://www.newyorkpizza.nl", "brand:wikidata": "Q2639128", "cuisine": "pizza", "name": "New York Pizza", "opening_hours": "Mo-Su 16:00-24:00", "phone": "+31 20 4681200", "source": "BAG", "source:date": "2014-03-24", "website": "https://www.newyorkpizza.nl/vestigingen/pizza-bestellen-amsterdam-linnaeusstraat" }, "geometry": { "type": "Point", "coordinates": [ 4.9269969, 52.3569352 ] } },
{ "type": "Feature", "id": "node/2826204245", "properties": { "@id": "node/2826204245", "addr:city": "Amsterdam", "addr:housenumber": "74-H", "addr:postcode": "1092CN", "addr:street": "Linnaeusstraat", "amenity": "restaurant", "name": "Marina Plaza", "source": "BAG", "source:date": "2014-03-24" }, "geometry": { "type": "Point", "coordinates": [ 4.9271066, 52.356753 ] } },
{ "type": "Feature", "id": "node/2827634382", "properties": { "@id": "node/2827634382", "addr:city": "Amsterdam", "addr:housenumber": "135", "addr:postcode": "1093NH", "addr:street": "Waldenlaan", "branch": "Amsterdam", "brand": "Sahan", "brand:wikidata": "Q134894963", "name": "Sahan", "opening_hours": "Mo-Sa 08:00-19:30; Su 12:00-18:00", "shop": "convenience", "source": "BAG", "source:date": "2014-03-24", "website": "https://sahan.nl" }, "geometry": { "type": "Point", "coordinates": [ 4.9294608, 52.3572195 ] } },
{ "type": "Feature", "id": "node/2827635793", "properties": { "@id": "node/2827635793", "addr:city": "Amsterdam", "addr:housenumber": "245-H", "addr:postcode": "1093ER", "addr:street": "Linnaeusstraat", "branch": "Amsterdam Linnaeusstraat", "brand": "Jumbo", "brand:website": "https://www.jumbo.com", "brand:wikidata": "Q2262314", "brand:wikipedia": "nl:Jumbo Supermarkten", "check_date": "2024-09-06", "name": "Jumbo", "opening_hours": "Mo-Sa 08:00-22:00; Su 09:00-22:00", "phone": "+31 20 247 1070", "shop": "supermarket", "source": "BAG", "source:date": "2014-03-24", "website": "https://www.jumbo.com/winkel/amsterdam/jumbo-amsterdam-linnaeusstraat" }, "geometry": { "type": "Point", "coordinates": [ 4.9282388, 52.3557035 ] } },
{ "type": "Feature", "id": "node/2827637054", "properties": { "@id": "node/2827637054", "addr:city": "Amsterdam", "addr:housenumber": "5", "addr:postcode": "1093NB", "addr:street": "Land van Cocagneplein", "branch": "Oostpoort", "brand": "Biolicious", "brand:website": "https://www.biolicious.nl", "name": "Biolicious", "opening_hours": "Mo-Fr 08:30-19:00; Sa 08:30-18:00; Su 10:00-18:00", "organic": "only", "phone": "+31 20 8208961", "shop": "convenience", "source": "BAG", "source:date": "2014-03-24", "website": "https://www.biolicious.nl/info-oostpoort.html" }, "geometry": { "type": "Point", "coordinates": [ 4.9282549, 52.3570148 ] } },
{ "type": "Feature", "id": "node/2829436740", "properties": { "@id": "node/2829436740", "addr:city": "Amsterdam", "addr:housenumber": "3-H", "addr:postcode": "1098BC", "addr:street": "Linnaeuskade", "amenity": "restaurant", "check_date": "2024-06-08", "contact:instagram": "moche_amsterdam", "cuisine": "peruvian", "diet:vegetarian": "yes", "dog": "yes", "email": "hello@moche.nl", "name": "Moche", "opening_hours": "Mo,Su off; Tu-Th 17:00-23:00; Fr-Sa 17:00-01:00", "outdoor_seating": "yes", "payment:cash": "no", "payment:credit_cards": "yes", "payment:debit_cards": "yes", "phone": "+31 6 17273170", "self_service": "no", "source": "BAG", "source:date": "2014-03-24", "website": "https://moche.nl/", "wheelchair": "limited" }, "geometry": { "type": "Point", "coordinates": [ 4.9290902, 52.35523 ] } },
{ "type": "Feature", "id": "node/2835215280", "properties": { "@id": "node/2835215280", "addr:city": "Amsterdam", "addr:housenumber": "55", "addr:street": "Oranje-Vrijstaatkade", "amenity": "restaurant", "name": "Nomads", "phone": "+31 20 779 0469", "website": "https://www.nomads-amsterdam.nl" }, "geometry": { "type": "Point", "coordinates": [ 4.9300496, 52.3564197 ] } },
{ "type": "Feature", "id": "node/3196125101", "properties": { "@id": "node/3196125101", "addr:city": "Amsterdam", "addr:housenumber": "66", "addr:postcode": "1093KS", "addr:street": "Oranje-Vrijstaatkade", "amenity": "restaurant", "name": "Yemen Restaurant", "source": "http://thaifoodcafe.nl" }, "geometry": { "type": "Point", "coordinates": [ 4.9288126, 52.3559762 ] } },
{ "type": "Feature", "id": "node/3801797662", "properties": { "@id": "node/3801797662", "addr:housenumber": "33", "addr:street": "Pretoriusstraat", "name": "Mas Atelier", "opening_hours": "We-Sa 09:00-15:00", "shop": "bakery", "website": "https://www.bakkerijmas.nl/" }, "geometry": { "type": "Point", "coordinates": [ 4.925747, 52.3557711 ] } },
{ "type": "Feature", "id": "node/3831330982", "properties": { "@id": "node/3831330982", "addr:city": "Amsterdam", "addr:housenumber": "37", "addr:postcode": "1092EZ", "addr:street": "Pretoriusstraat", "diet:gluten_free": "only", "name": "Flour.ish De Glutenvrije Winkel", "organic": "only", "shop": "supermarket", "website": "https://www.glutenvrijewinkelamsterdam.nl", "wheelchair": "no" }, "geometry": { "type": "Point", "coordinates": [ 4.9254428, 52.355701 ] } },
{ "type": "Feature", "id": "node/3831345180", "properties": { "@id": "node/3831345180", "amenity": "pub", "name": "Blend Coffee and Wine", "opening_hours": "Mo-Su 10:00-19:00", "wheelchair": "yes" }, "geometry": { "type": "Point", "coordinates": [ 4.9303232, 52.3565378 ] } },
{ "type": "Feature", "id": "node/4844301782", "properties": { "@id": "node/4844301782", "addr:city": "Amsterdam", "addr:housenumber": "25", "addr:postcode": "1093KS", "addr:street": "Oranje-Vrijstaatkade", "air_conditioning": "yes", "amenity": "restaurant", "bar": "yes", "brewery": "yes;various;jupiler;hertog_jan;kwak;tripel_karmeliet;leffe", "cuisine": "international;european;fish", "diet:gluten_free": "yes", "diet:halal": "yes", "diet:vegetarian": "yes", "email": "agenda@eighty-four.nl", "image": "https://www.eighty-four.nl/ckfinder/userfiles/files/Logo--Eighty-Four.png", "name": "Eighty-Four", "outdoor_seating": "yes", "payment:cash": "yes", "payment:maestro": "yes", "payment:mastercard": "yes", "payment:notes": "yes", "payment:visa": "yes", "phone": "+31 20 2210688", "source": "BAG;survey", "source:date": "2017-05-09", "website": "https://www.eighty-four.nl/", "wheelchair": "yes", "Fotos": "C:\\Users\\amdev\\OneDrive\\Afbeeldingen\\Screenshots\\Schermafbeelding 2026-02-05 224728.png" }, "geometry": { "type": "Point", "coordinates": [ 4.9295542, 52.3563155 ] } },
{ "type": "Feature", "id": "node/7835724726", "properties": { "@id": "node/7835724726", "addr:city": "Amsterdam", "addr:housenumber": "70-72", "addr:postcode": "1092CN", "addr:street": "Linnaeusstraat", "brand": "Biolicious", "brand:website": "https://www.biolicious.nl", "fixme": "Filiaal wordt niet weergegeven op website Biolicious. Bestaat deze nog?", "name": "Biolicious", "opening_hours": "Mo-Fr 08:30-19:00; Sa 08:30-18:00; Su 10:00-18:00", "organic": "only", "shop": "convenience", "website": "https://www.biolicious.nl/info-oostpoort.html" }, "geometry": { "type": "Point", "coordinates": [ 4.9270394, 52.3568365 ] } },
{ "type": "Feature", "id": "node/8857065922", "properties": { "@id": "node/8857065922", "addr:city": "Amsterdam", "addr:housenumber": "221", "addr:postcode": "1093EP", "addr:street": "Linnaeusstraat", "amenity": "fast_food", "check_date": "2025-05-02", "diet:vegan": "yes", "diet:vegetarian": "yes", "name": "Helin's Döner", "opening_hours": "Mo-Su 11:00-22:00", "phone": "+31 20 845 1908", "website": "https://helinsdoner.nl/" }, "geometry": { "type": "Point", "coordinates": [ 4.9279129, 52.3562634 ] } },
{ "type": "Feature", "id": "node/12647441024", "properties": { "@id": "node/12647441024", "amenity": "cafe", "name": "Kwekkeboom" }, "geometry": { "type": "Point", "coordinates": [ 4.9284743, 52.3569788 ] } },
{ "type": "Feature", "id": "node/12816719231", "properties": { "@id": "node/12816719231", "amenity": "restaurant", "name": "Aan De Kade" }, "geometry": { "type": "Point", "coordinates": [ 4.9289257, 52.3551651 ] } },
{ "type": "Feature", "id": "node/12816772227", "properties": { "@id": "node/12816772227", "name": "Drankerij", "opening_hours": "We,Th 12:00-18:00; Fr 12:00-19:00; Sa 10:30-19:00; Su 12:00-17:00", "shop": "alcohol" }, "geometry": { "type": "Point", "coordinates": [ 4.9271093, 52.3561221 ] } }
]
}
